UNKNOWN                 
1 87541U 70025    22248.64857545  .00000223  00000+0  52345-3 0  9999
2 87541  99.8493 138.3154 0058792 264.3347 126.0606 13.34964774422674
UNKNOWN                 
1 87553U 76126    22248.98561010  .00000592  00000+0  23471-3 0  9993
2 87553  65.6757 337.9485 0730439  35.4436 329.2952 13.42699189430377
UNKNOWN                 
1 87557U 73086    22249.09643778  .00001818  00000+0  49615-2 0  9993
2 87557 101.7755 303.6783 0078798 117.2109 243.7055 13.14499529407464
UNKNOWN                 
1 87561U 76077    22247.65738980 -.00000081  00000+0 -28059-3 0  9994
2 87561 102.1601 315.1803 0174343 315.9026 199.5889 12.32129638395248
UNKNOWN                 
1 87565U 99025    22248.85752277  .00001016  00000+0  62001-3 0  9996
2 87565  99.9213 119.2131 0181416 150.8477 210.2959 14.00724072449010
UNKNOWN                 
1 87569U 99025    22249.29673101 -.00000030  00000+0  90315-4 0  9993
2 87569 101.8419  11.7022 0056046  82.0788 308.2907 12.68480819407140
UNKNOWN                 
1 87587U 93036    22244.09043856  .00000081  00000+0  34881-4 0  9991
2 87587  74.0259 157.2804 0019950 126.2634 234.0367 14.38957827461335
UNKNOWN                 
1 87590U 99025    22243.91897284  .00000280  00000+0  19051-3 0  9993
2 87590  98.9340 285.3106 0028076  61.7753  63.0602 14.07866487986439
UNKNOWN                 
1 87616U 76067    22248.65365870  .00001179  00000+0  41055-2 0  9996
2 87616  66.0390 332.9261 0647195 286.2852 229.5484 12.45068299387474
UNKNOWN                 
1 87624U 99025    22249.41318358  .00001543  00000+0  34364-3 0  9999
2 87624  98.7506 112.5423 0127955 322.0673  37.1559 14.53618470406115
UNKNOWN                 
1 87642U          22246.30593060  .00039538  00000+0  17249-2 0  9991
2 87642  62.2210 185.8830 0114345 328.5960  30.8344 15.16144966471924
UNKNOWN                 
1 87650U          22242.53761770  .00005782  00000+0  21553-2 0  9993
2 87650 100.2655 154.6852 0058263  96.3377 264.4441 14.31503792 14686
UNKNOWN                 
1 87656U          22246.67754274  .00010812  00000+0  21682-2 0  9992
2 87656  99.1385  44.0626 0014417 346.6495  13.4320 14.61856566825887
UNKNOWN                 
1 87664U 75052    22239.89208420 -.00000244  00000+0 -55763-3 0  9991
2 87664  99.7204 217.3182 0211550 204.5152 182.9986 13.06274662532843
UNKNOWN                 
1 87672U 93016    22248.18790244  .00001017  00000+0  49951-3 0  9991
2 87672  70.8622  47.1226 0065664 285.6632  73.7253 14.19041332454512
UNKNOWN                 
1 87681U          22247.82549625  .00000665  00000+0  79299-3 0  9993
2 87681  66.7389  39.7487 0169123 231.8913 126.6803 13.67440687438252
UNKNOWN                 
1 87690U 76126    22248.07557306  .00002835  00000+0  46353-3 0  9994
2 87690  65.7996 166.1643 0680840 285.8229  66.8828 13.79474949441423
UNKNOWN                 
1 87706U          22249.33842389  .00001082  00000+0  26826-3 0  9994
2 87706  98.5635  16.4112 0133968 322.2527  93.0064 14.48855419404878
UNKNOWN                 
1 87725U 81053    22249.19858525  .00003082  00000+0  98411-3 0  9996
2 87725  82.9005 198.1806 0027665 282.0672  77.7419 14.39255563459973
UNKNOWN                 
1 87727U 92093    22248.56073559  .00052289  00000+0  64028-2 0  9999
2 87727  70.9799  96.9260 0016591  73.8601 286.4382 14.82791642467041
UNKNOWN                 
1 87730U          22249.13679772  .00000077  00000+0  65521-4 0  9992
2 87730  82.9455  37.0482 0031303  90.1249 270.3493 13.74211965421384
UNKNOWN                 
1 87737U 99025    22249.08636790  .00000011  00000+0  57452-4 0  9993
2 87737  99.5501 120.3330 0134327  52.1593 309.1622 13.72043361440157
UNKNOWN                 
1 87764U 76126    22248.68736760  .00003021  00000+0  63373-3 0  9995
2 87764  65.6736 130.8428 0487578 311.0003  76.1555 14.06409873449660
UNKNOWN                 
1 87771U 75052    22248.67471064  .00000066  00000+0  27232-3 0  9992
2 87771 100.6904  44.2834 0120346 188.2488 171.6647 13.19083256377638
UNKNOWN                 
1 87782U 73086    22249.12372186  .00001646  00000+0  62715-2 0  9994
2 87782 102.3876 315.8525 0073821 125.7409 235.0577 12.91678442413381
UNKNOWN                 
1 87817U 68097    22247.55178935  .00056900  00000+0  18509-2 0  9995
2 87817  62.7559 291.5935 0147976  68.9469 292.7391 15.21538691506899
UNKNOWN                 
1 87843U 70025    22249.00033493  .00001171  00000+0  29756-2 0  9995
2 87843  99.6787  92.0741 0244281 269.8680  87.4441 13.10724029407458
UNKNOWN                 
1 87845U          22249.44908137  .00000881  00000+0  17709-2 0  9999
2 87845  98.8443  68.9812 0586001 111.6653 254.7886 12.84919656411745
UNKNOWN                 
1 87878U          22247.88693455  .00001192  00000+0  47962-3 0  9996
2 87878  99.2183 279.3955 0043015 140.4121 220.0213 14.29649447440017
UNKNOWN                 
1 87883U 99025    22242.45773710  .00000254  00000+0  10872-3 0  9996
2 87883  99.2079 141.6709 0297361 148.8921 213.0239 14.12432948402724
UNKNOWN                 
1 87884U 99025    22248.14790368  .00000060  00000+0  56865-4 0  9995
2 87884  98.6172  25.8402 0156739 190.0535 169.7487 14.04545958450595
UNKNOWN                 
1 87898U 99025    22246.60042513  .00003267  00000+0  11481-2 0  9996
2 87898  98.9076 116.4716 0129008 157.2176 203.4802 14.31073272456561
UNKNOWN                 
1 87934U          22244.38723321  .00000048  00000+0  34885-4 0  9997
2 87934  82.9339 105.1306 0031798 125.3825  51.1094 13.72831074439874
UNKNOWN                 
1 87942U          22249.44927323  .00010655  00000+0  10365-2 0  9996
2 87942  99.0875 232.7591 0134143 338.3470 173.0454 14.86201838468253
UNKNOWN                 
1 87972U 99025    22248.06640269  .00013102  00000+0  42180-2 0  9992
2 87972  98.8008 177.4541 0157780 280.3123  78.0306 14.32531726404662
UNKNOWN                 
1 87991U 77065    22247.27534646 -.00000626  00000+0 -14022-2 0  9999
2 87991  28.6252 218.5908 0921478 199.2734 157.0604 12.30071132375446
UNKNOWN                 
1 87998U 99025    22237.33926589  .00000307  00000+0  20341-3 0  9999
2 87998  98.6894 276.1050 0028738  68.6753 291.7480 14.08301474379058
UNKNOWN                 
1 89003U          22238.85333718  .00000076  00000+0  35772-4 0  9995
2 89003  74.0456  61.1999 0015333  54.3269 305.9308 14.34805889458800
UNKNOWN                 
1 89005U          22248.44736092  .00001587  00000+0  43002-3 0  9997
2 89005  97.9584 152.6348 0221560  70.6439 291.8557 14.35362870362209
UNKNOWN                 
1 89029U          22247.07646968  .00001132  00000+0  15787-3 0  9998
2 89029  98.1981 106.3292 0028922 257.1123 102.6856 14.79513901473533
UNKNOWN                 
1 89037U          22240.31275134  .00001716  00000+0  10125-2 0  9998
2 89037  98.4381 195.0706 0139916 340.8531  18.7409 14.04304888353115
UNKNOWN                 
1 89048U          22249.20106401  .00038358  00000+0  63673-2 0  9995
2 89048  99.0463 154.2362 0022225  19.5679 340.6372 14.69862220464374
UNKNOWN                 
1 89067U          22249.22179167  .00029490  00000+0  89013-3 0  9991
2 89067  80.9866 169.2802 0556608  17.6838 344.2889 14.49673339408997
UNKNOWN                 
1 89074U          22249.07135632  .00001629  00000+0  19130-2 0  9997
2 89074 100.2937 286.2238 0055487 155.9727 233.2734 13.69283502425518
UNKNOWN                 
1 89101U          22247.66024960  .00000275  00000+0  95444-3 0  9991
2 89101 100.3114 214.3442 0146473 257.5166 100.9519 13.03669819399101
UNKNOWN                 
1 89123U          22248.23566113  .00003349  00000+0  15721-2 0  9994
2 89123  99.0657 351.6739 0063529  68.1434 292.6482 14.19720443357436
UNKNOWN                 
1 89127U          22245.55434244  .00019975  00000+0  15281-2 0  9992
2 89127  74.0623 183.6982 0035306 183.9628 176.1287 15.01359406314174
UNKNOWN                 
1 89132U          22249.25661387  .00003931  00000+0  36686-2 0  9996
2 89132  63.4405 344.6316 3054148 320.3805  20.8944  8.73873183220010
UNKNOWN                 
1 89135U          22248.90874925  .00003248  00000+0  15376-2 0  9998
2 89135  71.0666 314.4591 0138141 266.7270  91.8042 14.15469983452778
UNKNOWN                 
1 89142U          22249.51525424  .00021980  00000+0  20807-1 0  9998
2 89142  64.7666 354.6223 3013238  79.5328 312.6763  8.80681950  7415
UNKNOWN                 
1 89146U          22248.27444946  .00001182  00000+0  29910-3 0  9991
2 89146  98.1868 180.3063 0118494 148.4927 212.3434 14.48604201455185
UNKNOWN                 
1 89161U          22249.31146156  .00004754  00000+0  64054-3 0  9992
2 89161  97.7307 272.9640 0131151  85.6079 276.0101 14.73757070370409
UNKNOWN                 
1 89171U          22248.16441477  .00147040  00000+0  61050-2 0  9997
2 89171  98.9951 142.2959 0030173 144.1799 216.1464 15.22776759376135
UNKNOWN                 
1 89172U 81053    22247.36177166  .00002076  00000+0  50033-3 0  9996
2 89172  82.0780 229.0305 0409049 250.7900 104.8597 14.12515417431399
UNKNOWN                 
1 89177U          22239.28295531  .00000069  00000+0  58221-4 0  9991
2 89177  82.9179  81.1749 0031206 249.6493 110.1308 13.73437391897750
UNKNOWN                 
1 89183U          22249.24701671  .00000416  00000+0  41585-3 0  9992
2 89183  99.2044 173.8424 0134533  86.4833 275.1696 13.79411619442300
UNKNOWN                 
1 89184U          22248.79160720  .00003570  00000+0  11222-2 0  9994
2 89184  98.4754  84.6688 0017516 202.1770 157.8663 14.40993156318446
UNKNOWN                 
1 89195U          22244.65456616  .00001588  00000+0  69163-3 0  9994
2 89195  98.7702 312.0003 0033433 122.8035 237.6372 14.25131992356565
UNKNOWN                 
1 89206U          22249.03416859  .00003406  00000+0  14069-2 0  9994
2 89206  98.7047 273.9008 0030088  59.9687 300.4472 14.27146863315386
UNKNOWN                 
1 89213U          22249.02310261  .00000256  00000+0  19524-3 0  9993
2 89213  98.8750 163.0986 0233216 150.5215 210.9332 13.89318165286787
